[{"OBJECT_NAME":"IRIDIUM 173","OBJECT_ID":"2019-002D","EPOCH":"2026-03-09T23:25:14.922624","MEAN_MOTION":14.34217176,"ECCENTRICITY":0.00020878,"INCLINATION":86.3979,"RA_OF_ASC_NODE":35.0129,"ARG_OF_PERICENTER":83.8645,"MEAN_ANOMALY":276.2788,"EPHEMERIS_TYPE":0,"CLASSIFICATION_TYPE":"U","NORAD_CAT_ID":43925,"ELEMENT_SET_NO":999,"REV_AT_EPOCH":37473,"BSTAR":2.1469625e-5,"MEAN_MOTION_DOT":8.0e-7,"MEAN_MOTION_DDOT":0},{"OBJECT_NAME":"OPS 4078 (DMSP 4B F2)","OBJECT_ID":"1968-092A","EPOCH":"2026-03-09T21:16:17.407776","MEAN_MOTION":14.28218921,"ECCENTRICITY":0.00286708,"INCLINATION":98.5563,"RA_OF_ASC_NODE":193.3095,"ARG_OF_PERICENTER":258.2617,"MEAN_ANOMALY":101.5347,"EPHEMERIS_TYPE":0,"CLASSIFICATION_TYPE":"U","NORAD_CAT_ID":3510,"ELEMENT_SET_NO":999,"REV_AT_EPOCH":98307,"BSTAR":9.5982727e-5,"MEAN_MOTION_DOT":1.97e-6,"MEAN_MOTION_DDOT":0}]
